{
  "links" : {
    "next" : "https://api.nasa.gov/neo/rest/v1/feed?start_date=2015-12-23&end_date=2015-12-23&detailed=true&api_key=t0TVs3DtDT2H8Oy2Zy8m2eVrNsAVKAexjcZXUckd",
    "prev" : "https://api.nasa.gov/neo/rest/v1/feed?start_date=2015-12-21&end_date=2015-12-21&detailed=true&api_key=t0TVs3DtDT2H8Oy2Zy8m2eVrNsAVKAexjcZXUckd",
    "self" : "https://api.nasa.gov/neo/rest/v1/feed?start_date=2015-12-22&end_date=2015-12-22&detailed=true&api_key=t0TVs3DtDT2H8Oy2Zy8m2eVrNsAVKAexjcZXUckd"
  },
  "element_count" : 7,
  "near_earth_objects" : {
    "2015-12-22" : [ {
      "links" : {
        "self" : "https://api.nasa.gov/neo/rest/v1/neo/3738546?api_key=t0TVs3DtDT2H8Oy2Zy8m2eVrNsAVKAexjcZXUckd"
      },
      "neo_reference_id" : "3738546",
      "name" : "(2015 YK)",
      "nasa_jpl_url" : "http://ssd.jpl.nasa.gov/sbdb.cgi?sstr=3738546",
      "absolute_magnitude_h" : 25.9,
      "estimated_diameter" : {
        "kilometers" : {
          "estimated_diameter_min" : 0.0175612318,
          "estimated_diameter_max" : 0.0392681082
        },
        "meters" : {
          "estimated_diameter_min" : 17.561231848,
          "estimated_diameter_max" : 39.2681081809
        },
        "miles" : {
          "estimated_diameter_min" : 0.0109120402,
          "estimated_diameter_max" : 0.0244000636
        },
        "feet" : {
          "estimated_diameter_min" : 57.6155918963,
          "estimated_diameter_max" : 128.8323800441
        }
      },
      "is_potentially_hazardous_asteroid" : false,
      "close_approach_data" : [ {
        "close_approach_date" : "2015-12-22",
        "epoch_date_close_approach" : 1450771200000,
        "relative_velocity" : {
          "kilometers_per_second" : "3.3252891234",
          "kilometers_per_hour" : "11971.0408442107",
          "miles_per_hour" : "7438.3392401152"
        },
        "miss_distance" : {
          "astronomical" : "0.0227621694",
          "lunar" : "8.8544845581",
          "kilometers" : "3405172.25",
          "miles" : "2115876"
        },
        "orbiting_body" : "Earth"
      } ],
      "orbital_data" : {
        "orbit_id" : "14",
        "orbit_determination_date" : "2017-08-10 06:19:31",
        "orbit_uncertainty" : "5",
        "minimum_orbit_intersection" : ".0211616",
        "jupiter_tisserand_invariant" : "5.663",
        "epoch_osculation" : "2458000.5",
        "eccentricity" : ".1187134267775355",
        "semi_major_axis" : "1.094233551467998",
        "inclination" : "4.695938898404352",
        "ascending_node_longitude" : "258.9103792303021",
        "orbital_period" : "418.0839228851705",
        "perihelion_distance" : ".9643333368782793",
        "perihelion_argument" : "237.316767931189",
        "aphelion_distance" : "1.224133766057717",
        "perihelion_time" : "2457840.452811089046",
        "mean_anomaly" : "137.8120153732108",
        "mean_motion" : ".8610711397741939",
        "equinox" : "J2000"
      }
    }, {
      "links" : {
        "self" : "https://api.nasa.gov/neo/rest/v1/neo/3738915?api_key=t0TVs3DtDT2H8Oy2Zy8m2eVrNsAVKAexjcZXUckd"
      },
      "neo_reference_id" : "3738915",
      "name" : "(2015 YE1)",
      "nasa_jpl_url" : "http://ssd.jpl.nasa.gov/sbdb.cgi?sstr=3738915",
      "absolute_magnitude_h" : 27.4,
      "estimated_diameter" : {
        "kilometers" : {
          "estimated_diameter_min" : 0.0088014652,
          "estimated_diameter_max" : 0.0196806745
        },
        "meters" : {
          "estimated_diameter_min" : 8.801465209,
          "estimated_diameter_max" : 19.6806745089
        },
        "miles" : {
          "estimated_diameter_min" : 0.0054689752,
          "estimated_diameter_max" : 0.0122290004
        },
        "feet" : {
          "estimated_diameter_min" : 28.8761991163,
          "estimated_diameter_max" : 64.5691441559
        }
      },
      "is_potentially_hazardous_asteroid" : false,
      "close_approach_data" : [ {
        "close_approach_date" : "2015-12-22",
        "epoch_date_close_approach" : 1450771200000,
        "relative_velocity" : {
          "kilometers_per_second" : "10.2943698636",
          "kilometers_per_hour" : "37059.7315089557",
          "miles_per_hour" : "23027.4759478842"
        },
        "miss_distance" : {
          "astronomical" : "0.0141876576",
          "lunar" : "5.5189986229",
          "kilometers" : "2122443.25",
          "miles" : "1318825.125"
        },
        "orbiting_body" : "Earth"
      } ],
      "orbital_data" : {
        "orbit_id" : "10",
        "orbit_determination_date" : "2017-04-06 08:29:42",
        "orbit_uncertainty" : "7",
        "minimum_orbit_intersection" : ".0147558",
        "jupiter_tisserand_invariant" : "5.219",
        "epoch_osculation" : "2458000.5",
        "eccentricity" : ".320674733659956",
        "semi_major_axis" : "1.203866731944469",
        "inclination" : "10.13797178112111",
        "ascending_node_longitude" : "86.08994534883644",
        "orbital_period" : "482.4652592104445",
        "perihelion_distance" : ".817817088316095",
        "perihelion_argument" : "77.72210443812547",
        "aphelion_distance" : "1.589916375572844",
        "perihelion_time" : "2457916.728175695683",
        "mean_anomaly" : "62.50783071698762",
        "mean_motion" : ".7461677149337981",
        "equinox" : "J2000"
      }
    }, {
      "links" : {
        "self" : "https://api.nasa.gov/neo/rest/v1/neo/3738932?api_key=t0TVs3DtDT2H8Oy2Zy8m2eVrNsAVKAexjcZXUckd"
      },
      "neo_reference_id" : "3738932",
      "name" : "(2015 YQ1)",
      "nasa_jpl_url" : "http://ssd.jpl.nasa.gov/sbdb.cgi?sstr=3738932",
      "absolute_magnitude_h" : 28.0,
      "estimated_diameter" : {
        "kilometers" : {
          "estimated_diameter_min" : 0.0066765941,
          "estimated_diameter_max" : 0.0149293183
        },
        "meters" : {
          "estimated_diameter_min" : 6.676594135,
          "estimated_diameter_max" : 14.9293183439
        },
        "miles" : {
          "estimated_diameter_min" : 0.004148642,
          "estimated_diameter_max" : 0.0092766455
        },
        "feet" : {
          "estimated_diameter_min" : 21.9048371017,
          "estimated_diameter_max" : 48.9807047955
        }
      },
      "is_potentially_hazardous_asteroid" : false,
      "close_approach_data" : [ {
        "close_approach_date" : "2015-12-22",
        "epoch_date_close_approach" : 1450771200000,
        "relative_velocity" : {
          "kilometers_per_second" : "12.3822209464",
          "kilometers_per_hour" : "44575.9954069928",
          "miles_per_hour" : "27697.7900349729"
        },
        "miss_distance" : {
          "astronomical" : "0.0037243098",
          "lunar" : "1.4487565756",
          "kilometers" : "557148.8125",
          "miles" : "346196.21875"
        },
        "orbiting_body" : "Earth"
      } ],
      "orbital_data" : {
        "orbit_id" : "8",
        "orbit_determination_date" : "2017-04-06 08:29:39",
        "orbit_uncertainty" : "6",
        "minimum_orbit_intersection" : ".000615632",
        "jupiter_tisserand_invariant" : "5.990",
        "epoch_osculation" : "2458000.5",
        "eccentricity" : ".403957410850079",
        "semi_major_axis" : "1.003000184879345",
        "inclination" : "2.484442826425956",
        "ascending_node_longitude" : "88.87947254444529",
        "orbital_period" : "366.9018879396638",
        "perihelion_distance" : ".5978308271133341",
        "perihelion_argument" : "111.9793427923618",
        "aphelion_distance" : "1.408169542645356",
        "perihelion_time" : "2458176.955131839705",
        "mean_anomaly" : "186.8642120676685",
        "mean_motion" : ".9811887369170507",
        "equinox" : "J2000"
      }
    } ]
  }
}